[{"OBJECT_NAME":"LEMUR-2-AMANDA-SVANTE","OBJECT_ID":"2021-034B","EPOCH":"2026-03-09T18:37:58.823328","MEAN_MOTION":15.28469003,"ECCENTRICITY":0.00027027,"INCLINATION":97.5829,"RA_OF_ASC_NODE":144.8625,"ARG_OF_PERICENTER":205.4721,"MEAN_ANOMALY":154.6385,"EPHEMERIS_TYPE":0,"CLASSIFICATION_TYPE":"U","NORAD_CAT_ID":48269,"ELEMENT_SET_NO":999,"REV_AT_EPOCH":26584,"BSTAR":0.0011134246,"MEAN_MOTION_DOT":0.00030872,"MEAN_MOTION_DDOT":0},{"OBJECT_NAME":"STARLINK-32181","OBJECT_ID":"2024-136W","EPOCH":"2026-03-09T07:51:12.301344","MEAN_MOTION":15.30194267,"ECCENTRICITY":0.00012075,"INCLINATION":53.161,"RA_OF_ASC_NODE":77.0184,"ARG_OF_PERICENTER":95.4758,"MEAN_ANOMALY":264.6381,"EPHEMERIS_TYPE":0,"CLASSIFICATION_TYPE":"U","NORAD_CAT_ID":60349,"ELEMENT_SET_NO":999,"REV_AT_EPOCH":8961,"BSTAR":-1.3737954e-5,"MEAN_MOTION_DOT":-7.66e-6,"MEAN_MOTION_DDOT":0}]
